FLOCK 4Q-9              
1 58322U 23174BU  26095.24252121  .00034660  00000+0  70235-3 0  9996
2 58322  97.3872 182.1736 0006505  56.9723 303.2151 15.46304291134305
FLOCK 4Q-4              
1 58327U 23174BZ  26095.18789143  .00028692  00000+0  59441-3 0  9997
2 58327  97.3826 181.4554 0006950  75.2218 284.9800 15.45692372134277
FLOCK 4Q-13             
1 58328U 23174CA  26095.23877461  .00032416  00000+0  60768-3 0  9998
2 58328  97.3998 184.1015 0006805  65.4882 294.7078 15.48572858134373
FLOCK 4BE-18            
1 60480U 24149N   26095.20776847  .00025006  00000+0  63731-3 0  9996
2 60480  97.3738 178.3042 0004927 149.1552 210.9985 15.39519197 91072
FLOCK 4BE-7             
1 60481U 24149P   26095.19260429  .00026918  00000+0  73287-3 0  9999
2 60481  97.3770 177.8042 0003996 149.6218 210.5259 15.37472562 91029
FLOCK 4BE-26            
1 60484U 24149S   26095.20931301  .00150526  00000+0  25797-2 0  9993
2 60484  97.3710 178.5573 0005546 179.9581 180.1672 15.50651855 91092
FLOCK 4BE-36            
1 60486U 24149U   26095.22149909  .00026612  00000+0  65814-3 0  9995
2 60486  97.3752 178.9040 0004602 157.0585 203.0868 15.40427315 91112
FLOCK 4BE-25            
1 60487U 24149V   26095.21261920  .00020285  00000+0  56250-3 0  9997
2 60487  97.3810 177.9725 0003418 143.3083 216.8396 15.36962274 91023
FLOCK 4BE-31            
1 60488U 24149W   26095.17585250  .00027933  00000+0  67007-3 0  9997
2 60488  97.3806 179.5349 0003611 154.4277 205.7149 15.41346489 91126
FLOCK 4BE-20            
1 60489U 24149X   26095.20397667  .00019135  00000+0  54431-3 0  9997
2 60489  97.3711 177.0279 0004800 153.4014 206.7477 15.36172155 91009
FLOCK 4BE-23            
1 60490U 24149Y   26095.17691599  .00019488  00000+0  56078-3 0  9996
2 60490  97.3790 177.3363 0004391 159.6291 200.5129 15.35807754 90986
FLOCK 4BE-15            
1 60491U 24149Z   26095.17488668  .00114143  00000+0  23554-2 0  9994
2 60491  97.3721 178.6606 0005302 222.5192 137.5647 15.45430516 91106
FLOCK 4BE-17            
1 60492U 24149AA  26095.18984438  .00022171  00000+0  60033-3 0  9995
2 60492  97.3782 178.0997 0004191 149.7362 210.4126 15.37680566 91033
FLOCK 4BE-22            
1 60494U 24149AC  26095.16965727  .00022166  00000+0  57616-3 0  9992
2 60494  97.3743 178.1633 0004489 159.4277 200.7150 15.38941391 91062
FLOCK 4BE-34            
1 60495U 24149AD  26095.18905778  .00024381  00000+0  63090-3 0  9999
2 60495  97.3789 178.9535 0004607 165.7406 194.3971 15.39059521 91096
FLOCK 4BE-32            
1 60497U 24149AF  26095.19656322  .00026426  00000+0  66825-3 0  9991
2 60497  97.3728 178.4718 0004625 163.5920 196.5477 15.39748755 91095
